ONEWEB-0159             
1 48062U 21025W   25159.15894495 -.00000280  00000+0 -80074-3 0  9990
2 48062  87.8973  34.5284 0002024  77.8297 282.3059 13.13471020204500
ONEWEB-0164             
1 48063U 21025X   25159.14032629 -.00000188  00000+0 -54985-3 0  9992
2 48063  87.8975  34.5422 0001760  82.4890 277.6439 13.13469040204490
ONEWEB-0167             
1 48064U 21025Y   25159.09209471  .00000256  00000+0  66686-3 0  9993
2 48064  87.8987  34.5795 0002402  95.8975 264.2428 13.13471795204460
ONEWEB-0166             
1 48065U 21025Z   25159.11494154  .00000305  00000+0  79954-3 0  9998
2 48065  87.8972  34.5341 0001891  76.5346 283.5994 13.13468862204543
ONEWEB-0151             
1 48066U 21025AA  25159.04045572  .00000307  00000+0  80605-3 0  9994
2 48066  87.8976  34.5710 0001867  85.8547 274.2795 13.13469293204485
ONEWEB-0170             
1 48067U 21025AB  25158.66805116  .00000831  00000+0  22405-2 0  9995
2 48067  87.8979  34.6504 0001571  96.8710 263.2598 13.13463437204389
ONEWEB-0168             
1 48068U 21025AC  25159.10986307  .00000329  00000+0  86722-3 0  9993
2 48068  87.8980  34.5422 0001869  82.6801 277.4540 13.13469014204453
ONEWEB-0173             
1 48069U 21025AD  25159.10140989  .00000424  00000+0  11271-2 0  9994
2 48069  87.8980  34.5524 0002274  86.2567 273.8822 13.13471616204697
